FLOCK 4Q-7              
1 58318U 23174BQ  26064.22646732  .00041740  00000+0  77285-3 0  9999
2 58318  97.3940 152.6986 0008002 152.8587 207.3083 15.48866313129620
FLOCK 4Q-15             
1 58319U 23174BR  26064.22240298  .00130508  00000+0  16502-2 0  9992
2 58319  97.3914 154.9256 0004937 164.5007 195.6401 15.59072976129772
FLOCK 4Q-2              
1 58320U 23174BS  26064.27178543  .00030325  00000+0  64852-3 0  9990
2 58320  97.3872 150.6052 0008008 152.3845 207.7831 15.44737429129533
FLOCK 4Q-9              
1 58322U 23174BU  26064.22497043  .00032939  00000+0  71222-3 0  9998
2 58322  97.3907 150.6015 0008076 153.4399 206.7265 15.44394273129518
FLOCK 4Q-4              
1 58327U 23174BZ  26064.22543526  .00028180  00000+0  61785-3 0  9997
2 58327  97.3862 149.9805 0007513 170.8725 189.2661 15.44017938129494
FLOCK 4Q-13             
1 58328U 23174CA  26064.20281378  .00033879  00000+0  67806-3 0  9991
2 58328  97.4026 152.3485 0007538 165.6463 194.5003 15.46663882129573
FLOCK 4Q-21             
1 58329U 23174CB  26064.20589321  .00055060  00000+0  76305-3 0  9991
2 58329  97.3940 155.3677 0005873 171.3738 188.7620 15.56888356129793
FLOCK 4BE-18            
1 60480U 24149N   26064.18873016  .00023605  00000+0  63126-3 0  9996
2 60480  97.3783 147.0932 0003106 261.6650  98.4243 15.38057581 86309
FLOCK 4BE-7             
1 60481U 24149P   26064.19733683  .00019554  00000+0  55774-3 0  9991
2 60481  97.3813 146.7011 0002051 251.2745 108.8276 15.36092055 86266
FLOCK 4BE-26            
1 60484U 24149S   26064.21881865  .00097692  00000+0  21710-2 0  9994
2 60484  97.3771 147.0096 0005902 253.6170 106.4429 15.43297936 86307
FLOCK 4BE-36            
1 60486U 24149U   26064.22034374  .00024888  00000+0  64691-3 0  9995
2 60486  97.3791 147.6646 0002789 275.0694  85.0233 15.38924508 86342
FLOCK 4BE-25            
1 60487U 24149V   26064.21043422  .00018640  00000+0  53641-3 0  9991
2 60487  97.3848 146.8632 0001278 239.6227 120.4891 15.35825034 86268
FLOCK 4BE-31            
1 60488U 24149W   26064.19159301  .00027860  00000+0  70548-3 0  9992
2 60488  97.3847 148.2498 0001723 268.2631  91.8417 15.39705561 86357
FLOCK 4BE-20            
1 60489U 24149X   26064.18653643  .00017714  00000+0  52169-3 0  9996
2 60489  97.3755 145.9788 0002453 265.8794  94.2169 15.35105763 86249
FLOCK 4BE-23            
1 60490U 24149Y   26064.21738453  .00017521  00000+0  52194-3 0  9999
2 60490  97.3834 146.3289 0002090 278.3991  81.7015 15.34747825 86235
FLOCK 4BE-15            
1 60491U 24149Z   26064.22656022  .00083259  00000+0  20982-2 0  9992
2 60491  97.3773 147.3612 0002887 323.8470  36.2580 15.39569476 86333
